NORAD_CAT_ID,OBJECT_NAME,OBJECT_TYPE,EPOCH,MEAN_MOTION,ECCENTRICITY,INCLINATION,RA_OF_ASC_NODE,ARG_OF_PERICENTER,MEAN_ANOMALY,BSTAR,MEAN_MOTION_DOT,MEAN_MOTION_DDOT,TLE_LINE0,TLE_LINE1,TLE_LINE2,SEMIMAJOR_AXIS,PERIOD,APOGEE,PERIGEE,DECAYED
54174.0,STARLINK-5248,PAYLOAD,2023-09-15 11:12:07,15.08837838,0.0001229,53.2188,57.0557,99.25,260.8631,-2.7345e-05,-7.23e-06,0.0,0 STARLINK-5248,1 54174U 22141T   23258.46675493 -.00000723  00000-0 -27345-4 0  9994,2 54174  53.2188  57.0557 0001229  99.2500 260.8631 15.08837838 49817,6917.887,95.438,540.602,538.902,0.0
54174.0,STARLINK-5248,PAYLOAD,2023-09-15 17:33:39,15.0884691,0.0001173,53.2184,55.8669,96.9508,263.1618,4.2245e-05,3.85e-06,0.0,0 STARLINK-5248,1 54174U 22141T   23258.73170731  .00000385  00000-0  42245-4 0  9997,2 54174  53.2184  55.8669 0001173  96.9508 263.1618 15.08846910 49859,6917.859,95.437,540.536,538.913,0.0
54174.0,STARLINK-5248,PAYLOAD,2023-09-16 09:27:31,15.08827147,0.000118,53.2181,52.894,92.0709,268.0419,0.00010375,1.363e-05,0.0,0 STARLINK-5248,1 54174U 22141T   23259.39411970  .00001363  00000-0  10375-3 0  9998,2 54174  53.2181  52.8940 0001180  92.0709 268.0419 15.08827147 49958,6917.92,95.438,540.601,538.968,0.0
54174.0,STARLINK-5248,PAYLOAD,2023-09-16 14:13:41,15.08828022,0.0001126,53.2185,52.002,92.6353,267.4768,8.6001e-05,1.081e-05,0.0,0 STARLINK-5248,1 54174U 22141T   23259.59284155  .00001081  00000-0  86001-4 0  9990,2 54174  53.2185  52.0020 0001126  92.6353 267.4768 15.08828022 49991,6917.917,95.438,540.561,539.003,0.0
54174.0,STARLINK-5248,PAYLOAD,2023-09-17 10:53:42,15.08841677,0.0001112,53.2183,48.1366,87.489,272.6229,4.419e-05,4.16e-06,0.0,0 STARLINK-5248,1 54174U 22141T   23260.45395896  .00000416  00000-0  44190-4 0  9996,2 54174  53.2183  48.1366 0001112  87.4890 272.6229 15.08841677 50118,6917.875,95.437,540.51,538.971,0.0
54174.0,STARLINK-5248,PAYLOAD,2023-09-17 17:15:13,15.08849936,0.0001496,53.2185,46.9474,99.3487,260.7674,0.00012654,1.727e-05,0.0,0 STARLINK-5248,1 54174U 22141T   23260.71891153  .00001727  00000-0  12654-3 0  9997,2 54174  53.2185  46.9474 0001496  99.3487 260.7674 15.08849936 50157,6917.85,95.437,540.75,538.68,0.0
54174.0,STARLINK-5248,PAYLOAD,2023-09-18 10:44:29,15.0883485,0.0001309,53.2186,43.6761,86.6002,273.514,0.00010944,1.454e-05,0.0,0 STARLINK-5248,1 54174U 22141T   23261.44756280  .00001454  00000-0  10944-3 0  9996,2 54174  53.2186  43.6761 0001309  86.6002 273.5140 15.08834850 50267,6917.896,95.438,540.667,538.856,0.0
54174.0,STARLINK-5248,PAYLOAD,2023-09-18 13:55:15,15.08838326,0.0001392,53.2202,43.0813,88.5857,271.5295,0.0001236,1.68e-05,0.0,0 STARLINK-5248,1 54174U 22141T   23261.58004043  .00001680  00000-0  12360-3 0  9999,2 54174  53.2202  43.0813 0001392  88.5857 271.5295 15.08838326 50293,6917.886,95.438,540.713,538.788,0.0
54174.0,STARLINK-5248,PAYLOAD,2023-09-18 17:06:01,15.08844535,0.0001331,53.2199,42.486,81.6031,278.5112,8.9177e-05,1.132e-05,0.0,0 STARLINK-5248,1 54174U 22141T   23261.71251723  .00001132  00000-0  89177-4 0  9996,2 54174  53.2199  42.4860 0001331  81.6031 278.5112 15.08844535 50300,6917.867,95.437,540.652,538.811,0.0
54174.0,STARLINK-5248,PAYLOAD,2023-09-19 16:56:47,15.08857211,0.0001268,53.2191,38.0264,86.3729,273.7408,0.00023488,3.454e-05,0.0,0 STARLINK-5248,1 54174U 22141T   23262.70610738  .00003454  00000-0  23488-3 0  9992,2 54174  53.2191  38.0264 0001268  86.3729 273.7408 15.08857211 50452,6917.828,95.436,540.57,538.816,0.0
54174.0,STARLINK-5248,PAYLOAD,2023-09-20 08:50:40,15.08828345,0.0001579,53.2201,35.0536,81.9167,278.2005,-0.00010517,-1.961e-05,0.0,0 STARLINK-5248,1 54174U 22141T   23263.36852437 -.00001961  00000-0 -10517-3 0  9991,2 54174  53.2201  35.0536 0001579  81.9167 278.2005 15.08828345 50555,6917.916,95.438,540.873,538.689,0.0
54174.0,STARLINK-5248,PAYLOAD,2023-09-20 13:36:50,15.08823758,0.0001361,53.2197,34.1617,63.043,297.0701,-0.00013603,-2.451e-05,0.0,0 STARLINK-5248,1 54174U 22141T   23263.56724863 -.00002451  00000-0 -13603-3 0  9998,2 54174  53.2197  34.1617 0001361  63.0430 297.0701 15.08823758 50591,6917.93,95.439,540.737,538.854,0.0
54174.0,STARLINK-5248,PAYLOAD,2023-09-20 15:12:13,15.08824435,0.000142,53.2191,33.8633,75.4053,284.7097,-0.00014614,-2.612e-05,0.0,0 STARLINK-5248,1 54174U 22141T   23263.63348860 -.00002612  00000-0 -14614-3 0  9997,2 54174  53.2191  33.8633 0001420  75.4053 284.7097 15.08824435 50609,6917.928,95.439,540.775,538.811,0.0
54174.0,STARLINK-5248,PAYLOAD,2023-09-21 08:41:27,15.0883813,0.0001005,53.2201,30.5906,97.9004,262.2102,0.00033749,5.087e-05,0.0,0 STARLINK-5248,1 54174U 22141T   23264.36212820  .00005087  00000-0  33749-3 0  9991,2 54174  53.2201  30.5906 0001005  97.9004 262.2102 15.08838130 50708,6917.886,95.438,540.446,539.056,0.0
54174.0,STARLINK-5248,PAYLOAD,2023-09-21 13:27:37,15.08850709,0.0001492,53.2198,29.702,72.1131,288.0024,0.00086546,0.00013517,0.0,0 STARLINK-5248,1 54174U 22141T   23264.56084884  .00013517  00000-0  86546-3 0  9990,2 54174  53.2198  29.7020 0001492  72.1131 288.0024 15.08850709 50745,6917.848,95.437,540.745,538.681,0.0
54174.0,STARLINK-5248,PAYLOAD,2023-09-21 15:03:00,15.08855895,0.0001512,53.2201,29.4054,70.1346,289.9809,0.00099925,0.00015658,0.0,0 STARLINK-5248,1 54174U 22141T   23264.62708809  .00015658  00000-0  99925-3 0  9990,2 54174  53.2201  29.4054 0001512  70.1346 289.9809 15.08855895 50745,6917.832,95.437,540.743,538.651,0.0
54174.0,STARLINK-5248,PAYLOAD,2023-09-22 08:32:14,15.08861754,0.0001148,53.2196,26.1315,76.0831,284.0289,0.00070517,0.00010959,0.0,0 STARLINK-5248,1 54174U 22141T   23265.35572268  .00010959  00000-0  70517-3 0  9994,2 54174  53.2196  26.1315 0001148  76.0831 284.0289 15.08861754 50852,6917.814,95.436,540.473,538.885,0.0
54174.0,STARLINK-5248,PAYLOAD,2023-09-22 13:18:23,15.08867431,0.0001221,53.2189,25.2396,63.1777,296.934,0.00090506,0.00014156,0.0,0 STARLINK-5248,1 54174U 22141T   23265.55444102  .00014156  00000-0  90506-3 0  9994,2 54174  53.2189  25.2396 0001221  63.1777 296.9340 15.08867431 50893,6917.797,95.436,540.506,538.817,0.0
54174.0,STARLINK-5248,PAYLOAD,2023-09-22 14:53:46,15.08864576,0.0001275,53.2188,24.9412,78.8405,281.273,0.00074114,0.00011535,0.0,0 STARLINK-5248,1 54174U 22141T   23265.62067973  .00011535  00000-0  74114-3 0  9994,2 54174  53.2188  24.9412 0001275  78.8405 281.2730 15.08864576 50906,6917.805,95.436,540.552,538.788,0.0
54174.0,STARLINK-5248,PAYLOAD,2023-09-23 11:33:47,15.0885267,0.0001662,53.2186,21.0771,105.9694,254.1481,0.00024689,3.645e-05,0.0,0 STARLINK-5248,1 54174U 22141T   23266.48179769  .00003645  00000-0  24689-3 0  9991,2 54174  53.2186  21.0771 0001662 105.9694 254.1481 15.08852670 51020,6917.842,95.437,540.856,538.557,0.0
54174.0,STARLINK-5248,PAYLOAD,2023-09-23 13:09:10,15.08845477,0.0001586,53.2193,20.7812,90.6972,269.4202,0.00018111,2.596e-05,0.0,0 STARLINK-5248,1 54174U 22141T   23266.54803922  .00002596  00000-0  18111-3 0  9990,2 54174  53.2193  20.7812 0001586  90.6972 269.4202 15.08845477 51043,6917.864,95.437,540.826,538.631,0.0
54174.0,STARLINK-5248,PAYLOAD,2023-09-24 06:38:25,15.08841296,0.0001585,53.2188,17.5104,109.8066,250.3097,-1.9942e-05,-6.05e-06,0.0,0 STARLINK-5248,1 54174U 22141T   23267.27667877 -.00000605  00000-0 -19942-4 0  9993,2 54174  53.2188  17.5104 0001585 109.8066 250.3097 15.08841296 51148,6917.876,95.437,540.838,538.645,0.0
54174.0,STARLINK-5248,PAYLOAD,2023-09-24 12:59:57,15.08840216,0.0001492,53.2185,16.3199,89.9673,270.149,4.8144e-05,4.78e-06,0.0,0 STARLINK-5248,1 54174U 22141T   23267.54164193  .00000478  00000-0  48144-4 0  9998,2 54174  53.2185  16.3199 0001492  89.9673 270.1490 15.08840216 51198,6917.88,95.438,540.777,538.713,0.0
54174.0,STARLINK-5248,PAYLOAD,2023-09-25 08:04:35,15.08840242,0.0001486,53.2177,12.7516,101.9882,258.1277,7.9156e-05,9.72e-06,0.0,0 STARLINK-5248,1 54174U 22141T   23268.33652419  .00000972  00000-0  79156-4 0  9995,2 54174  53.2177  12.7516 0001486 101.9882 258.1277 15.08840242 51303,6917.88,95.438,540.773,538.717,0.0
54174.0,STARLINK-5248,PAYLOAD,2023-09-25 12:50:44,15.08846119,0.0001588,53.2185,11.8598,105.0617,255.0551,0.00017543,2.506e-05,0.0,0 STARLINK-5248,1 54174U 22141T   23268.53524149  .00002506  00000-0  17543-3 0  9991,2 54174  53.2185  11.8598 0001588 105.0617 255.0551 15.08846119 51340,6917.862,95.437,540.825,538.628,0.0
54174.0,STARLINK-5248,PAYLOAD,2023-09-25 14:26:07,15.08854464,0.0001404,53.218,11.5614,86.438,273.6773,0.00037598,5.703e-05,0.0,0 STARLINK-5248,1 54174U 22141T   23268.60147875  .00005703  00000-0  37598-3 0  9990,2 54174  53.2180  11.5614 0001404  86.4380 273.6773 15.08854464 51341,6917.836,95.437,540.672,538.73,0.0
54174.0,STARLINK-5248,PAYLOAD,2023-09-26 11:06:09,15.08837031,0.0001437,53.217,7.6959,84.2663,275.8493,0.00016783,2.384e-05,0.0,0 STARLINK-5248,1 54174U 22141T   23269.46260938  .00002384  00000-0  16783-3 0  9996,2 54174  53.2170   7.6959 0001437  84.2663 275.8493 15.08837031 51472,6917.889,95.438,540.749,538.76,0.0
54174.0,STARLINK-5248,PAYLOAD,2023-09-26 14:16:55,15.0884056,0.0001407,53.2176,7.099,81.3187,278.7964,0.00020543,2.983e-05,0.0,0 STARLINK-5248,1 54174U 22141T   23269.59508847  .00002983  00000-0  20543-3 0  9998,2 54174  53.2176   7.0990 0001407  81.3187 278.7964 15.08840560 51503,6917.879,95.438,540.717,538.77,0.0
54174.0,STARLINK-5248,PAYLOAD,2023-09-27 12:32:19,15.08845426,0.0001398,53.2167,2.9372,84.4798,275.6353,0.0003864,5.868e-05,0.0,0 STARLINK-5248,1 54174U 22141T   23270.52244852  .00005868  00000-0  38640-3 0  9998,2 54174  53.2167   2.9372 0001398  84.4798 275.6353 15.08845426 51641,6917.864,95.437,540.696,538.762,0.0
54174.0,STARLINK-5248,PAYLOAD,2023-09-28 12:23:06,15.08842582,0.0001467,53.217,358.4784,77.3788,282.7368,0.00020598,2.992e-05,0.0,0 STARLINK-5248,1 54174U 22141T   23271.51605158  .00002992  00000-0  20598-3 0  9996,2 54174  53.2170 358.4784 0001467  77.3788 282.7368 15.08842582 51788,6917.872,95.437,540.752,538.723,0.0
